#dP2024  1 25  6  0  0.00000000      96 __u+U IGS20 EXT  IAC
## 2298 367200.00000000   900.00000000 60334 0.2500000000000
+  118   C06C07C08C09C10C11C12C13C14C16C19C20C21C22C23C24C25
+        C26C27C28C29C30C32C33C34C35C36C37C38C39C40C41C42C43
+        C44C45C46E02E03E04E05E07E08E09E10E11E12E13E14E15E18
+        E19E21E24E25E26E27E30E31E33E34E36G02G03G04G05G06G07
+        G08G09G10G11G12G13G14G15G16G17G18G19G20G21G22G23G24
+        G25G26G28G29G30G31G32J02J03J04R01R02R03R04R05R07R08
+        R09R11R12R13R14R15R16R17R18R19R20R21R22R24R25R26  0
++        10 11  9  9 10  9  9  9 10 10  8  9  9  8  8  8  8
++         8  7  9  8  8  9  9  8  8  9  9  8 10  8  9  9  9
++         8  8  8  7  8  8  8  8  8  9  7  7  7  8  8  9  7
++         8  7  7  7  8  8  8  8  7  8  8  8  8  8  8  8  8
++        10  7  8  8  8  8  7  8  8  7  8  8  8  8  7  8  7
++         8  8  7  9  8  7  7  9  0  9  9  8  9  8  8  9  9
++         7  9  8  8  8  9  9  8  8  8  9  8  9 10  9  8  0
%c M  cc GPS ccc cccc cccc cccc cccc ccccc ccccc ccccc ccccc
%c cc cc ccc ccc cccc cccc cccc cccc ccccc ccccc ccccc ccccc
%f  0.0000000  0.000000000  0.00000000000  0.000000000000000
%f  0.0000000  0.000000000  0.00000000000  0.000000000000000
%i    0    0    0    0      0      0      0      0         0
%i    0    0    0    0      0      0      0      0         0
/* IAC                                ULTRA-RAPID PREDICTION
/* S/V CLOCKS ARE ALIGNED TO GNSS TIME                      
/* G:C1WC2W R:C1PC2P E:C1XC5X C:C2IC6I J:C1CC2S             
/* PCV:IGS20_2290 OL/AL:FES2004  NONE     YN ORB:CoN CLK:CoN
*  2024 01 25  7 30  0.00000000
PC06 -14959.854370  39105.671149   3423.959666     68.686791
PC07  -2158.888020  32023.260548  27509.558011   -693.065408
PC08 -14872.896713  20804.298316 -33573.954627     88.058183
PC09  -8598.562565  38705.066804  13813.703519   -399.142414
PC10   4643.947084  34654.436976  24246.589888    112.306056
PC11   6193.884669 -26913.225787  -3913.263030    375.791359
PC12  14606.719844 -13812.919993 -19312.864080    787.018264
PC13  -5617.041924  22438.584300 -35127.075149    410.971961
PC14   1321.025780 -17291.080259  21866.453441     41.805460
PC16 -15325.469570  38995.794837   2740.310082   -300.986607
PC19   8535.352213  20304.802018 -17121.319733   -933.850598
PC20  -9129.608009  12664.336228 -23117.769489    -98.180297
PC21  22909.596812   3449.411309  15589.133466   -963.572289
PC22  22300.698424  16770.396155   -945.639996   -134.803091
PC23 -15934.209119  -9366.310011 -20915.867741   -786.775553
PC24  20752.407322 -16447.425289  -8786.856916    821.990009
PC25   2347.601512 -18079.326440 -21136.794204    310.033942
PC26  25982.766419  -6153.360345   8026.558446   -239.639800
PC27 -16151.232974   4176.709781  22351.832177    261.627325
PC28 -12584.287721 -14720.497320  20100.238104    198.659181
PC29   1327.759020  27515.765364  -4442.820813    232.768299
PC30 -10851.568627  21941.193983  13372.847839    -18.151412
PC32 -22957.913520  -3350.302575 -15482.849979   -558.134756
PC33  -8505.290727 -20247.186386  17214.743229   -944.637013
PC34  10115.010853 -23027.596806 -12126.360481    354.659066
PC35  13187.654220  14259.457595 -20032.360251    449.285902
PC36  -3458.318205  18166.868529  20914.673139    -39.705039
PC37 -26082.955895   5186.020927  -8504.286166   -932.911100
PC38 -22582.955154  22047.790149 -27965.092504    132.604088
PC39 -17727.885074  37722.076661  -5426.488949     -6.828782
PC40  -5849.587729  27496.838360  31502.805082    -53.582702
PC41 -21975.602839 -17100.537310   1820.647740   -882.800073
PC42  10709.833081 -11591.959265  23060.567128   -461.583748
PC43   -686.202968 -27685.292729   3536.374786     57.756673
PC44  16145.259620  -4620.656411 -22303.649920    364.212015
PC45  16113.260157   9094.313751  20871.269769    -65.592370
PC46 -20207.547288  16689.315674   9632.893164   -118.425357
PE02  25107.498887  -6028.753191 -14463.713151     97.882585
PE03  14288.074110  -9644.631648  24057.599914    -89.310423
PE04  -1006.369511  25693.942845 -14654.687732   -311.651299
PE05  19068.909153  11795.007120  19325.511836   4713.627579
PE07 -12499.912481 -26675.749771  -2853.504678   -100.214628
PE08   1421.007081 -25334.623523  15234.621869   -213.371235
PE09  12435.078710  26726.675582   2747.999171   -311.919164
PE10  -4761.840837  23620.148773 -17191.246182   -596.789566
PE11   4710.684826  17931.669179 -23071.840851   3274.231409
PE12 -12474.607717  25138.946447  -9374.216916   -877.621073
PE13  -4045.941361 -18392.999296  22849.485627    -19.997527
PE14  21905.931798   8750.269246 -21286.467917     20.319728
PE15  12867.274483 -25138.773336   8899.159879    -82.074219
PE18 -15105.696859   5923.983280  19174.959897    250.145033
PE19 -15281.972145   7079.373539 -24335.786187   -745.513028
PE21 -28703.836540  -6625.896135  -2944.311198   -575.616637
PE24  15191.420935  16193.253318  19539.696503   -561.091578
PE25  28596.827323   6862.841839   3307.856356     -0.040303
PE26 -18772.005336   -469.430968  22892.099926    349.282251
PE27 -15689.664898 -16013.699513 -19341.005994   -257.937016
PE30   6758.907489 -15829.009065 -24096.782657   -852.441114
PE31  -6442.449684  15853.880582  24151.680213    -14.515198
PE33 -22087.329701  16623.798606  10593.719299      6.516949
PE34  21968.321215 -17091.870738 -10064.529159    -90.903360
PE36  18330.087199    992.661915 -23214.058345   -176.607443
PG02 -15270.678142  21553.988285   1276.255892   -495.737142
PG03 -11093.432126  12407.107345 -20813.706254    149.289097
PG04  -4093.181086  20896.680963 -15775.690537    274.851259
PG05  21672.697026  -7199.984108  13466.842364   -159.259088
PG06  15091.185944   3760.293967 -21474.762317    432.424290
PG07    535.943441  19910.756098  17821.636645    -45.751333
PG08  -9718.896732  13715.724965  20370.552830   -163.770023
PG09   6598.054862  25131.735033  -5440.873342     69.998366
PG10 -21487.667686 -10967.567371  11676.879344    -70.680767
PG11  20290.631353  -6901.756707 -15631.069831   -552.382445
PG12  12138.903983 -12036.718642 -20596.055122   -471.336430
PG13  14452.758001  -3585.985612  21789.856009    619.198375
PG14  18300.320497  13381.341258  14008.623637    307.911793
PG15   8237.424343 -14921.661744  19832.003792    120.764320
PG16 -25425.959596   -158.697018   8118.340616   -377.027561
PG17  12615.639485  21911.933334  -7450.500558    718.977210
PG18   -674.848709 -19009.017796  18473.877415   -540.293821
PG19  15508.214401  15129.767796 -15789.659873    431.325001
PG20  26439.826209  -1159.240181    477.222895    390.055604
PG21 -17216.480715  18728.034135   6053.262381    137.262451
PG22  22776.322652  11084.878867   7901.853549     42.401539
PG23 -10313.536761 -14588.916153  19736.656875    142.253766
PG24  15254.315567 -21362.193541   1690.672016   -420.149915
PG25   -806.957710 -15742.445325 -21732.787569    486.430389
PG26 -26380.280158  -3736.792089  -2638.769137    197.033883
PG28 -13868.634202  -6676.025120 -21666.601397   -109.322388
PG29  -3368.433873 -25483.028470  -6522.908512   -608.187630
PG30   9930.616521  12677.566603  21219.224076   -441.178705
PG31 -19114.753474   2407.461933 -18662.050862   -227.486974
PG32 -15567.090671 -18920.062879 -10315.495255   -607.522089
PJ02 -29889.764572  21277.414707  25857.296471     -1.427724
PJ03      0.000000      0.000000      0.000000     -0.200419
PJ04 -21265.922668  23533.789805 -22659.935109     77.988692
PR01  19419.113562  15864.821737   4710.041672     75.430060
PR02  16113.505357   3831.530754  19419.529875    -22.436691
PR03   4166.905365 -11011.907811  22684.082785     93.262749
PR04  -9701.367343 -19332.264341  13566.438348    220.557125
PR05 -18360.150439 -17490.988939  -2884.575873    125.851415
PR07  -3498.893335  11536.205755 -22429.721277     74.315954
PR08  10004.190578  19315.926712 -13230.226570    -74.155888
PR09 -24677.230713   5927.049282  -2092.261137    166.281541
PR11  -1662.807119  11586.598077  22666.639315     36.512512
PR12  17714.372893   4295.221235  17852.536649     35.989650
PR13  24714.180574  -4440.602362   4449.591477    -43.657933
PR14  17442.917645 -11849.599771 -14360.340822     25.970114
PR15    132.476723 -11382.163703 -22815.917794     82.777747
PR16 -17472.667647  -4230.472720 -18079.867134     22.723362
PR17  10100.849827 -22105.819389  -7674.645227     55.450940
PR18   3012.423090 -23743.215085   8921.964793    123.913002
PR19  -4533.402059 -14821.822685  20264.429280   -263.323387
PR20 -12285.370333   6630.774835  21350.652900   -107.302203
PR21 -10150.691538  22231.057260   7351.189211    -71.647316
PR22  -2971.351345  23356.686616  -9763.595877    104.822205
PR24  12482.969961  -7648.214478 -20864.124987    -41.246114
PR25 -11099.309008  21703.807888   7550.360621     60.067886
PR26   9487.154714  19098.873796 -13989.576280   -201.749427
EOF
